OBJECT_NAME,OBJECT_ID,EPOCH,MEAN_MOTION,ECCENTRICITY,INCLINATION,RA_OF_ASC_NODE,ARG_OF_PERICENTER,MEAN_ANOMALY,EPHEMERIS_TYPE,CLASSIFICATION_TYPE,NORAD_CAT_ID,ELEMENT_SET_NO,REV_AT_EPOCH,BSTAR,MEAN_MOTION_DOT,MEAN_MOTION_DDOT
STARLINK-31806,2024-082K,2026-06-28T12:50:24.896832,15.27575505,.00021666,43.0062,233.8704,269.5404,90.5200,0,U,59640,999,12176,.9776126E-5,.6E-7,0
STARLINK-31804,2024-082L,2026-06-28T10:39:15.036192,15.27596253,.00028856,42.9960,234.0416,289.2074,70.8465,0,U,59641,999,12175,-.11806722E-3,-.3512E-4,0
STARLINK-31660,2024-082M,2026-06-28T08:18:42.542208,15.27582147,.00011808,43.0008,194.5051,275.3456,84.7261,0,U,59642,999,12239,.4149479E-4,.88E-5,0
STARLINK-31800,2024-082N,2026-06-27T21:25:30.461088,15.27574075,.0001414,43.0011,237.6365,293.5856,66.4847,0,U,59643,999,12176,.53778E-4,.1218E-4,0
STARLINK-31789,2024-082P,2026-06-28T12:30:03.707136,15.27595027,.00014253,42.9993,233.7623,271.2872,88.7817,0,U,59644,999,12196,.43688257E-3,.11785E-3,0
STARLINK-31795,2024-082Q,2026-06-27T16:36:43.578720,15.27583249,.00011927,43.0013,180.0029,268.4693,91.6022,0,U,59645,999,12230,-.50037242E-4,-.1639E-4,0
STARLINK-31796,2024-082R,2026-06-28T12:39:19.012032,15.27578125,.00011891,43.0011,233.8097,281.5469,78.5250,0,U,59646,999,12192,.76569939E-4,.1845E-4,0
STARLINK-31801,2024-082S,2026-06-28T11:58:49.302336,15.27576653,.00015014,43.0003,234.4561,274.3433,85.7247,0,U,59647,999,12180,.40588374E-4,.855E-5,0
STARLINK-31787,2024-082V,2026-06-28T12:44:52.290528,15.27575563,.00007841,43.0009,233.8371,286.0942,73.9823,0,U,59650,999,12196,.32052233E-4,.62E-5,0
STARLINK-31277,2024-082W,2026-06-28T12:55:57.804672,15.27579764,.0003168,43.0068,233.8975,276.6019,83.4472,0,U,59651,999,12196,-.93091767E-4,-.2824E-4,0
STARLINK-31799,2024-082X,2026-06-28T12:15:29.256192,15.27579076,.0002724,43.0098,223.2764,262.2185,97.8357,0,U,59652,999,12193,.54798166E-4,.1245E-4,0
STARLINK-31764,2024-082Y,2026-06-28T12:24:30.611808,15.27578455,.00012562,43.0004,233.7303,270.7472,89.3235,0,U,59653,999,12196,.45466893E-4,.989E-5,0
STARLINK-31589,2024-084A,2026-06-28T04:23:44.479680,15.27548485,.00009888,43.0002,137.6232,271.6250,88.4488,0,U,59654,999,12129,-.1260561E-3,-.3726E-4,0
STARLINK-31665,2024-084B,2026-06-28T14:00:27.154368,15.27567667,.00012698,43.0034,132.0166,271.2636,88.8070,0,U,59655,999,12137,-.52598307E-4,-.1709E-4,0
STARLINK-31912,2024-084C,2026-06-28T14:29:22.428384,15.27591305,.00017126,43.0023,135.6224,283.2235,76.8425,0,U,59656,999,12133,.16936938E-3,.4403E-4,0
STARLINK-31904,2024-084D,2026-06-28T14:14:33.204768,15.27573714,.00009971,43.0033,135.5457,272.7202,87.3536,0,U,59657,999,12133,.50765365E-4,.1135E-4,0
STARLINK-31858,2024-084E,2026-06-28T13:37:32.938176,15.27567695,.00013297,42.9996,135.3430,274.3780,85.6919,0,U,59658,999,12133,-.64563622E-4,-.2038E-4,0
STARLINK-31881,2024-084F,2026-06-28T13:27:07.574112,15.27581730,.00012836,43.0007,131.8286,277.9154,82.1552,0,U,59659,999,12137,.66073342E-4,.1557E-4,0
STARLINK-31885,2024-084G,2026-06-28T14:11:31.981632,15.27581844,.00025093,43.0063,132.0690,271.6262,88.4303,0,U,59660,999,12137,.10207587E-3,.2547E-4,0
STARLINK-31880,2024-084H,2026-06-28T13:51:12.179520,15.27585683,.00012118,43.0050,131.9652,273.2041,86.8672,0,U,59661,999,12137,-.29201158E-4,-.1066E-4,0
STARLINK-31886,2024-084J,2026-06-28T14:23:49.028064,15.27565497,.00012269,43.0028,135.5918,270.8782,89.1929,0,U,59662,999,12133,.2561466E-4,.443E-5,0
STARLINK-31909,2024-084K,2026-06-28T03:57:49.941504,15.27573159,.00019455,43.0037,137.5272,264.7238,95.3392,0,U,59663,999,12127,.63064449E-4,.1473E-4,0
STARLINK-31910,2024-084L,2026-06-27T22:01:32.394720,15.27571168,.0001163,43.0019,139.0611,268.1821,91.8898,0,U,59664,999,12123,-.56477E-4,-.1815E-4,0
STARLINK-31902,2024-084N,2026-06-28T14:34:54.699456,15.27574367,.00012509,43.0030,135.6453,269.7166,90.3543,0,U,59666,999,12133,.67501469E-4,.1595E-4,0
STARLINK-31913,2024-084P,2026-06-28T13:45:39.439296,15.27565820,.00007225,43.0012,131.9285,290.3575,69.7199,0,U,59667,999,12137,-.58311927E-4,-.1865E-4,0
STARLINK-31866,2024-084Q,2026-06-28T13:16:44.130720,15.27565782,.00007628,43.0006,128.2973,257.5437,102.5329,0,U,59668,999,12141,.14646309E-3,.3769E-4,0
STARLINK-31917,2024-084R,2026-06-27T22:27:26.220960,15.27586208,.0001152,43.0030,139.1954,273.3204,86.7516,0,U,59669,999,12123,-.49634E-4,-.1628E-4,0
STARLINK-31860,2024-084S,2026-06-28T14:06:00.209088,15.27575239,.00011748,43.0042,132.0366,269.9621,90.1096,0,U,59670,999,12135,.84911917E-4,.2075E-4,0
STARLINK-31854,2024-084T,2026-06-28T11:28:38.447328,15.27571760,.00012101,43.0015,103.0917,274.7667,85.3047,0,U,59671,999,12167,.11818534E-3,.2991E-4,0
STARLINK-31842,2024-084U,2026-06-28T14:17:07.045152,15.27534094,.00017698,43.0056,132.0919,291.5156,68.5507,0,U,59672,999,12137,.34391485E-3,.92E-4,0
