STARLINK-31806          
1 59640U 24082K   26179.53501038  .00000006  00000+0  97761-5 0  9990
2 59640  43.0062 233.8704 0002166 269.5404  90.5200 15.27575505121768
STARLINK-31804          
1 59641U 24082L   26179.44392403 -.00003512  00000+0 -11807-3 0  9997
2 59641  42.9960 234.0416 0002885 289.2074  70.8465 15.27596253121753
STARLINK-31660          
1 59642U 24082M   26179.34632572  .00000880  00000+0  41495-4 0  9991
2 59642  43.0008 194.5051 0001180 275.3456  84.7261 15.27582147122397
STARLINK-31800          
1 59643U 24082N   26178.89271367  .00001218  00000+0  53778-4 0  9995
2 59643  43.0011 237.6365 0001414 293.5856  66.4847 15.27574075121763
STARLINK-31789          
1 59644U 24082P   26179.52087624  .00011785  00000+0  43688-3 0  9996
2 59644  42.9993 233.7623 0001425 271.2872  88.7817 15.27595027121964
STARLINK-31795          
1 59645U 24082Q   26178.69217105 -.00001639  00000+0 -50037-4 0  9999
2 59645  43.0013 180.0029 0001192 268.4693  91.6022 15.27583249122307
STARLINK-31796          
1 59646U 24082R   26179.52730338  .00001845  00000+0  76570-4 0  9998
2 59646  43.0011 233.8097 0001189 281.5469  78.5250 15.27578125121922
STARLINK-31801          
1 59647U 24082S   26179.49918174  .00000855  00000+0  40588-4 0  9991
2 59647  43.0003 234.4561 0001501 274.3433  85.7247 15.27576653121803
STARLINK-31787          
1 59650U 24082V   26179.53116077  .00000620  00000+0  32052-4 0  9999
2 59650  43.0009 233.8371 0000784 286.0942  73.9823 15.27575563121967
STARLINK-31277          
1 59651U 24082W   26179.53886348 -.00002824  00000+0 -93092-4 0  9996
2 59651  43.0068 233.8975 0003168 276.6019  83.4472 15.27579764121965
STARLINK-31799          
1 59652U 24082X   26179.51075528  .00001245  00000+0  54798-4 0  9999
2 59652  43.0098 223.2764 0002724 262.2185  97.8357 15.27579076121934
STARLINK-31764          
1 59653U 24082Y   26179.51702097  .00000989  00000+0  45467-4 0  9995
2 59653  43.0004 233.7303 0001256 270.7472  89.3235 15.27578455121963
STARLINK-31589          
1 59654U 24084A   26179.18315370 -.00003726  00000+0 -12606-3 0  9997
2 59654  43.0002 137.6232 0000988 271.6250  88.4488 15.27548485121296
STARLINK-31665          
1 59655U 24084B   26179.58364762 -.00001709  00000+0 -52598-4 0  9995
2 59655  43.0034 132.0166 0001269 271.2636  88.8070 15.27567667121377
STARLINK-31912          
1 59656U 24084C   26179.60373181  .00004403  00000+0  16937-3 0  9992
2 59656  43.0023 135.6224 0001712 283.2235  76.8425 15.27591305121334
STARLINK-31904          
1 59657U 24084D   26179.59343987  .00001135  00000+0  50765-4 0  9999
2 59657  43.0033 135.5457 0000997 272.7202  87.3536 15.27573714121338
STARLINK-31858          
1 59658U 24084E   26179.56774234 -.00002038  00000+0 -64564-4 0  9997
2 59658  42.9996 135.3430 0001329 274.3780  85.6919 15.27567695121330
STARLINK-31881          
1 59659U 24084F   26179.56050433  .00001557  00000+0  66073-4 0  9996
2 59659  43.0007 131.8286 0001283 277.9154  82.1552 15.27581730121374
STARLINK-31885          
1 59660U 24084G   26179.59134238  .00002547  00000+0  10208-3 0  9995
2 59660  43.0063 132.0690 0002509 271.6262  88.4303 15.27581844121372
STARLINK-31880          
1 59661U 24084H   26179.57722430 -.00001066  00000+0 -29201-4 0  9992
2 59661  43.0050 131.9652 0001211 273.2041  86.8672 15.27585683121373
STARLINK-31886          
1 59662U 24084J   26179.59987301  .00000443  00000+0  25615-4 0  9996
2 59662  43.0028 135.5918 0001226 270.8782  89.1929 15.27565497121333
STARLINK-31909          
1 59663U 24084K   26179.16516136  .00001473  00000+0  63064-4 0  9998
2 59663  43.0037 137.5272 0001945 264.7238  95.3392 15.27573159121275
STARLINK-31910          
1 59664U 24084L   26178.91773605 -.00001815  00000+0 -56477-4 0  9999
2 59664  43.0019 139.0611 0001163 268.1821  91.8898 15.27571168121234
STARLINK-31902          
1 59666U 24084N   26179.60757754  .00001595  00000+0  67501-4 0  9998
2 59666  43.0030 135.6453 0001250 269.7166  90.3543 15.27574367121337
STARLINK-31913          
1 59667U 24084P   26179.57337314 -.00001865  00000+0 -58312-4 0  9993
2 59667  43.0012 131.9285 0000722 290.3575  69.7199 15.27565820121372
STARLINK-31866          
1 59668U 24084Q   26179.55328855  .00003769  00000+0  14646-3 0  9996
2 59668  43.0006 128.2973 0000762 257.5437 102.5329 15.27565782121418
STARLINK-31917          
1 59669U 24084R   26178.93572015 -.00001628  00000+0 -49634-4 0  9997
2 59669  43.0030 139.1954 0001152 273.3204  86.7516 15.27586208121235
STARLINK-31860          
1 59670U 24084S   26179.58750242  .00002075  00000+0  84912-4 0  9994
2 59670  43.0042 132.0366 0001174 269.9621  90.1096 15.27575239121354
STARLINK-31854          
1 59671U 24084T   26179.47822277  .00002991  00000+0  11819-3 0  9993
2 59671  43.0015 103.0917 0001210 274.7667  85.3047 15.27571760121672
STARLINK-31842          
1 59672U 24084U   26179.59522043  .00009200  00000+0  34391-3 0  9995
2 59672  43.0056 132.0919 0001769 291.5156  68.5507 15.27534094121371
